{
  "type": "FeatureCollection",
  "features": [
    {
      "type": "Feature",
      "properties": {
        "norad_id": 34389,
        "name": "COSMOS 2251 DEB",
        "group": "cosmos-2251-debris",
        "lat": -22.374262115957,
        "lon": 81.07217096719847,
        "alt_km": 778.142709949755,
        "timestamp": "2025-12-10T07:43:55.173423+00:00",
        "meta_object_name": "COSMOS 2251 DEB",
        "meta_object_id": "1993-036QE",
        "meta_epoch": "2025-12-09T04:40:56.277984",
        "meta_mean_motion": 14.41518195,
        "meta_eccentricity": 0.00287404,
        "meta_inclination": 74.0195,
        "meta_ra_of_asc_node": 256.3866,
        "meta_arg_of_pericenter": 9.087,
        "meta_mean_anomaly": 107.6825,
        "meta_ephemeris_type": 0,
        "meta_classification_type": "U",
        "meta_norad_cat_id": 34389,
        "meta_element_set_no": 999,
        "meta_rev_at_epoch": 87961,
        "meta_bstar": 0.00056729856,
        "meta_mean_motion_dot": 1.826e-05,
        "meta_mean_motion_ddot": 0,
        "tle_line1": "1 34389U 93036QE  25343.19509581  .00001826  00000+0  56730-3 0  9993",
        "tle_line2": "2 34389  74.0195 256.3866 0028740   9.0870 107.6825 14.41518195879615"
      },
      "geometry": {
        "type": "Point",
        "coordinates": [
          81.07217096719847,
          -22.374262115957
        ]
      }
    },
    {
      "type": "Feature",
      "properties": {
        "norad_id": 34396,
        "name": "COSMOS 2251 DEB",
        "group": "cosmos-2251-debris",
        "lat": -21.269560017074102,
        "lon": -44.84439283545698,
        "alt_km": 648.4478036216033,
        "timestamp": "2025-12-10T07:43:55.173433+00:00",
        "meta_object_name": "COSMOS 2251 DEB",
        "meta_object_id": "1993-036QM",
        "meta_epoch": "2025-12-09T16:13:21.482112",
        "meta_mean_motion": 14.74273504,
        "meta_eccentricity": 0.0006498,
        "meta_inclination": 74.029,
        "meta_ra_of_asc_node": 130.0162,
        "meta_arg_of_pericenter": 171.4572,
        "meta_mean_anomaly": 202.1967,
        "meta_ephemeris_type": 0,
        "meta_classification_type": "U",
        "meta_norad_cat_id": 34396,
        "meta_element_set_no": 999,
        "meta_rev_at_epoch": 88301,
        "meta_bstar": 0.0035337,
        "meta_mean_motion_dot": 0.00023436,
        "meta_mean_motion_ddot": 0,
        "tle_line1": "1 34396U 93036QM  25343.67594308  .00023436  00000+0  35337-2 0  9995",
        "tle_line2": "2 34396  74.0290 130.0162 0006498 171.4572 202.1967 14.74273504883010"
      },
      "geometry": {
        "type": "Point",
        "coordinates": [
          -44.84439283545698,
          -21.269560017074102
        ]
      }
    },
    {
      "type": "Feature",
      "properties": {
        "norad_id": 34400,
        "name": "COSMOS 2251 DEB",
        "group": "cosmos-2251-debris",
        "lat": -42.19957601253227,
        "lon": -136.1736329381198,
        "alt_km": 414.40998392909387,
        "timestamp": "2025-12-10T07:43:55.173444+00:00",
        "meta_object_name": "COSMOS 2251 DEB",
        "meta_object_id": "1993-036QR",
        "meta_epoch": "2025-12-09T13:44:51.088128",
        "meta_mean_motion": 15.51565229,
        "meta_eccentricity": 0.0005948,
        "meta_inclination": 73.9665,
        "meta_ra_of_asc_node": 30.3656,
        "meta_arg_of_pericenter": 268.7226,
        "meta_mean_anomaly": 91.3306,
        "meta_ephemeris_type": 0,
        "meta_classification_type": "U",
        "meta_norad_cat_id": 34400,
        "meta_element_set_no": 999,
        "meta_rev_at_epoch": 89925,
        "meta_bstar": 0.0040468,
        "meta_mean_motion_dot": 0.00247678,
        "meta_mean_motion_ddot": 0,
        "tle_line1": "1 34400U 93036QR  25343.57281352  .00247678  00000+0  40468-2 0  9999",
        "tle_line2": "2 34400  73.9665  30.3656 0005948 268.7226  91.3306 15.51565229899257"
      },
      "geometry": {
        "type": "Point",
        "coordinates": [
          -136.1736329381198,
          -42.19957601253227
        ]
      }
    },
    {
      "type": "Feature",
      "properties": {
        "norad_id": 34409,
        "name": "COSMOS 2251 DEB",
        "group": "cosmos-2251-debris",
        "lat": -51.546935815038154,
        "lon": 152.51967477244526,
        "alt_km": 755.8509394167986,
        "timestamp": "2025-12-10T07:43:55.173454+00:00",
        "meta_object_name": "COSMOS 2251 DEB",
        "meta_object_id": "1993-036RA",
        "meta_epoch": "2025-12-09T14:44:57.177024",
        "meta_mean_motion": 14.58015689,
        "meta_eccentricity": 0.0079686,
        "meta_inclination": 74.063,
        "meta_ra_of_asc_node": 312.773,
        "meta_arg_of_pericenter": 27.9278,
        "meta_mean_anomaly": 94.3156,
        "meta_ephemeris_type": 0,
        "meta_classification_type": "U",
        "meta_norad_cat_id": 34409,
        "meta_element_set_no": 999,
        "meta_rev_at_epoch": 89147,
        "meta_bstar": 0.00044337,
        "meta_mean_motion_dot": 2.098e-05,
        "meta_mean_motion_ddot": 0,
        "tle_line1": "1 34409U 93036RA  25343.61455066  .00002098  00000+0  44337-3 0  9993",
        "tle_line2": "2 34409  74.0630 312.7730 0079686  27.9278  94.3156 14.58015689891470"
      },
      "geometry": {
        "type": "Point",
        "coordinates": [
          152.51967477244526,
          -51.546935815038154
        ]
      }
    },
    {
      "type": "Feature",
      "properties": {
        "norad_id": 34410,
        "name": "COSMOS 2251 DEB",
        "group": "cosmos-2251-debris",
        "lat": 67.86874733901661,
        "lon": 41.024515667727755,
        "alt_km": 488.7799552339229,
        "timestamp": "2025-12-10T07:43:55.173464+00:00",
        "meta_object_name": "COSMOS 2251 DEB",
        "meta_object_id": "1993-036RB",
        "meta_epoch": "2025-12-09T18:45:14.908320",
        "meta_mean_motion": 15.18456802,
        "meta_eccentricity": 0.0021121,
        "meta_inclination": 73.7385,
        "meta_ra_of_asc_node": 268.0424,
        "meta_arg_of_pericenter": 109.8067,
        "meta_mean_anomaly": 280.6184,
        "meta_ephemeris_type": 0,
        "meta_classification_type": "U",
        "meta_norad_cat_id": 34410,
        "meta_element_set_no": 999,
        "meta_rev_at_epoch": 89729,
        "meta_bstar": 0.0034496,
        "meta_mean_motion_dot": 0.00072173,
        "meta_mean_motion_ddot": 0,
        "tle_line1": "1 34410U 93036RB  25343.78142255  .00072173  00000+0  34496-2 0  9991",
        "tle_line2": "2 34410  73.7385 268.0424 0021121 109.8067 280.6184 15.18456802897295"
      },
      "geometry": {
        "type": "Point",
        "coordinates": [
          41.024515667727755,
          67.86874733901661
        ]
      }
    },
    {
      "type": "Feature",
      "properties": {
        "norad_id": 34412,
        "name": "COSMOS 2251 DEB",
        "group": "cosmos-2251-debris",
        "lat": -1.423696264578986,
        "lon": 149.56694781427555,
        "alt_km": 795.440281577894,
        "timestamp": "2025-12-10T07:43:55.173475+00:00",
        "meta_object_name": "COSMOS 2251 DEB",
        "meta_object_id": "1993-036RD",
        "meta_epoch": "2025-12-08T23:23:24.222624",
        "meta_mean_motion": 14.47068319,
        "meta_eccentricity": 0.0187102,
        "meta_inclination": 73.9489,
        "meta_ra_of_asc_node": 331.6897,
        "meta_arg_of_pericenter": 67.6677,
        "meta_mean_anomaly": 294.4194,
        "meta_ephemeris_type": 0,
        "meta_classification_type": "U",
        "meta_norad_cat_id": 34412,
        "meta_element_set_no": 999,
        "meta_rev_at_epoch": 87596,
        "meta_bstar": 0.0012474,
        "meta_mean_motion_dot": 5.633e-05,
        "meta_mean_motion_ddot": 0,
        "tle_line1": "1 34412U 93036RD  25342.97458591  .00005633  00000+0  12474-2 0  9995",
        "tle_line2": "2 34412  73.9489 331.6897 0187102  67.6677 294.4194 14.47068319875962"
      },
      "geometry": {
        "type": "Point",
        "coordinates": [
          149.56694781427555,
          -1.423696264578986
        ]
      }
    },
    {
      "type": "Feature",
      "properties": {
        "norad_id": 34413,
        "name": "COSMOS 2251 DEB",
        "group": "cosmos-2251-debris",
        "lat": 65.41370912096579,
        "lon": 50.52904295903378,
        "alt_km": 822.9945407273999,
        "timestamp": "2025-12-10T07:43:55.173485+00:00",
        "meta_object_name": "COSMOS 2251 DEB",
        "meta_object_id": "1993-036RE",
        "meta_epoch": "2025-12-09T04:55:13.938816",
        "meta_mean_motion": 14.29051962,
        "meta_eccentricity": 0.00908663,
        "meta_inclination": 74.0317,
        "meta_ra_of_asc_node": 271.2975,
        "meta_arg_of_pericenter": 348.4182,
        "meta_mean_anomaly": 134.6327,
        "meta_ephemeris_type": 0,
        "meta_classification_type": "U",
        "meta_norad_cat_id": 34413,
        "meta_element_set_no": 999,
        "meta_rev_at_epoch": 87080,
        "meta_bstar": 0.0021262677,
        "meta_mean_motion_dot": 5.607e-05,
        "meta_mean_motion_ddot": 0,
        "tle_line1": "1 34413U 93036RE  25343.20502244  .00005607  00000+0  21263-2 0  9995",
        "tle_line2": "2 34413  74.0317 271.2975 0090866 348.4182 134.6327 14.29051962870809"
      },
      "geometry": {
        "type": "Point",
        "coordinates": [
          50.52904295903378,
          65.41370912096579
        ]
      }
    }
  ]
}